{
  "type": "FeatureCollection",
  "features": [
    {
      "type": "Feature",
      "properties": {
        "norad_id": 15362,
        "name": "NOVA 3",
        "group": "nnss",
        "lat": -12.738483687879327,
        "lon": 80.72140266454062,
        "alt_km": 1164.3751995160328,
        "timestamp": "2025-12-26T06:43:29.780127+00:00",
        "meta_object_name": "NOVA 3",
        "meta_object_id": "1984-110A",
        "meta_epoch": "2025-12-25T18:40:43.211424",
        "meta_mean_motion": 13.23046286,
        "meta_eccentricity": 0.00298541,
        "meta_inclination": 90.1217,
        "meta_ra_of_asc_node": 80.688,
        "meta_arg_of_pericenter": 294.3065,
        "meta_mean_anomaly": 183.5086,
        "meta_ephemeris_type": 0,
        "meta_classification_type": "U",
        "meta_norad_cat_id": 15362,
        "meta_element_set_no": 999,
        "meta_rev_at_epoch": 98871,
        "meta_bstar": 0.00014425029,
        "meta_mean_motion_dot": 6.9e-07,
        "meta_mean_motion_ddot": 0,
        "tle_line1": "1 15362U 84110A   25359.77827791  .00000069  00000+0  14425-3 0  9996",
        "tle_line2": "2 15362  90.1217  80.6880 0029854 294.3065 183.5086 13.23046286988715"
      },
      "geometry": {
        "type": "Point",
        "coordinates": [
          80.72140266454062,
          -12.738483687879327
        ]
      }
    },
    {
      "type": "Feature",
      "properties": {
        "norad_id": 15935,
        "name": "OSCAR 30",
        "group": "nnss",
        "lat": -19.523761221346135,
        "lon": 100.12709579030094,
        "alt_km": 1074.6353015724226,
        "timestamp": "2025-12-26T06:43:29.780138+00:00",
        "meta_object_name": "OSCAR 30",
        "meta_object_id": "1985-066A",
        "meta_epoch": "2025-12-25T20:37:30.509760",
        "meta_mean_motion": 13.36080597,
        "meta_eccentricity": 0.01688008,
        "meta_inclination": 90.1653,
        "meta_ra_of_asc_node": 100.0616,
        "meta_arg_of_pericenter": 47.223,
        "meta_mean_anomaly": 72.1814,
        "meta_ephemeris_type": 0,
        "meta_classification_type": "U",
        "meta_norad_cat_id": 15935,
        "meta_element_set_no": 999,
        "meta_rev_at_epoch": 96628,
        "meta_bstar": 0.00020088881,
        "meta_mean_motion_dot": 1.21e-06,
        "meta_mean_motion_ddot": 0,
        "tle_line1": "1 15935U 85066A   25359.85938090  .00000121  00000+0  20089-3 0  9999",
        "tle_line2": "2 15935  90.1653 100.0616 0168800  47.2230  72.1814 13.36080597966280"
      },
      "geometry": {
        "type": "Point",
        "coordinates": [
          100.12709579030094,
          -19.523761221346135
        ]
      }
    },
    {
      "type": "Feature",
      "properties": {
        "norad_id": 15936,
        "name": "OSCAR 24",
        "group": "nnss",
        "lat": 50.60450158135686,
        "lon": 92.32671181553607,
        "alt_km": 992.3462918236019,
        "timestamp": "2025-12-26T06:43:29.780150+00:00",
        "meta_object_name": "OSCAR 24",
        "meta_object_id": "1985-066B",
        "meta_epoch": "2025-12-25T18:26:58.709184",
        "meta_mean_motion": 13.35937682,
        "meta_eccentricity": 0.01699978,
        "meta_inclination": 90.1791,
        "meta_ra_of_asc_node": 92.5359,
        "meta_arg_of_pericenter": 53.9382,
        "meta_mean_anomaly": 58.384,
        "meta_ephemeris_type": 0,
        "meta_classification_type": "U",
        "meta_norad_cat_id": 15936,
        "meta_element_set_no": 999,
        "meta_rev_at_epoch": 96817,
        "meta_bstar": 0.00016315366,
        "meta_mean_motion_dot": 1e-06,
        "meta_mean_motion_ddot": 0,
        "tle_line1": "1 15936U 85066B   25359.76873506  .00000100  00000+0  16315-3 0  9994",
        "tle_line2": "2 15936  90.1791  92.5359 0169997  53.9382  58.3840 13.35937682968173"
      },
      "geometry": {
        "type": "Point",
        "coordinates": [
          92.32671181553607,
          50.60450158135686
        ]
      }
    },
    {
      "type": "Feature",
      "properties": {
        "norad_id": 17070,
        "name": "POLAR BEAR",
        "group": "nnss",
        "lat": -0.0006248502047911896,
        "lon": -176.76860714594346,
        "alt_km": 978.4500728519206,
        "timestamp": "2025-12-26T06:43:29.780161+00:00",
        "meta_object_name": "POLAR BEAR",
        "meta_object_id": "1986-088A",
        "meta_epoch": "2025-12-25T22:33:59.850720",
        "meta_mean_motion": 13.75253504,
        "meta_eccentricity": 0.0041274,
        "meta_inclination": 89.617,
        "meta_ra_of_asc_node": 183.2451,
        "meta_arg_of_pericenter": 81.3071,
        "meta_mean_anomaly": 37.3379,
        "meta_ephemeris_type": 0,
        "meta_classification_type": "U",
        "meta_norad_cat_id": 17070,
        "meta_element_set_no": 999,
        "meta_rev_at_epoch": 96160,
        "meta_bstar": 0.00010387943,
        "meta_mean_motion_dot": 1.12e-06,
        "meta_mean_motion_ddot": 0,
        "tle_line1": "1 17070U 86088A   25359.94027605  .00000112  00000+0  10388-3 0  9998",
        "tle_line2": "2 17070  89.6170 183.2451 0041274  81.3071  37.3379 13.75253504961609"
      },
      "geometry": {
        "type": "Point",
        "coordinates": [
          -176.76860714594346,
          -0.0006248502047911896
        ]
      }
    },
    {
      "type": "Feature",
      "properties": {
        "norad_id": 18361,
        "name": "OSCAR 27",
        "group": "nnss",
        "lat": -41.746353436027746,
        "lon": -100.5551410256287,
        "alt_km": 1035.1579095313346,
        "timestamp": "2025-12-26T06:43:29.780172+00:00",
        "meta_object_name": "OSCAR 27",
        "meta_object_id": "1987-080A",
        "meta_epoch": "2025-12-25T18:54:56.214432",
        "meta_mean_motion": 13.44909401,
        "meta_eccentricity": 0.01040164,
        "meta_inclination": 90.3736,
        "meta_ra_of_asc_node": 79.7601,
        "meta_arg_of_pericenter": 186.2684,
        "meta_mean_anomaly": 173.717,
        "meta_ephemeris_type": 0,
        "meta_classification_type": "U",
        "meta_norad_cat_id": 18361,
        "meta_element_set_no": 999,
        "meta_rev_at_epoch": 87732,
        "meta_bstar": 0.00017034191,
        "meta_mean_motion_dot": 1.12e-06,
        "meta_mean_motion_ddot": 0,
        "tle_line1": "1 18361U 87080A   25359.78815063  .00000112  00000+0  17034-3 0  9995",
        "tle_line2": "2 18361  90.3736  79.7601 0104016 186.2684 173.7170 13.44909401877324"
      },
      "geometry": {
        "type": "Point",
        "coordinates": [
          -100.5551410256287,
          -41.746353436027746
        ]
      }
    },
    {
      "type": "Feature",
      "properties": {
        "norad_id": 18362,
        "name": "OSCAR 29",
        "group": "nnss",
        "lat": -30.988442557467707,
        "lon": -99.98665960806709,
        "alt_km": 1020.5351805850141,
        "timestamp": "2025-12-26T06:43:29.780185+00:00",
        "meta_object_name": "OSCAR 29",
        "meta_object_id": "1987-080B",
        "meta_epoch": "2025-12-25T19:34:53.500800",
        "meta_mean_motion": 13.44450875,
        "meta_eccentricity": 0.01048208,
        "meta_inclination": 90.3748,
        "meta_ra_of_asc_node": 80.2212,
        "meta_arg_of_pericenter": 209.3307,
        "meta_mean_anomaly": 275.5585,
        "meta_ephemeris_type": 0,
        "meta_classification_type": "U",
        "meta_norad_cat_id": 18362,
        "meta_element_set_no": 999,
        "meta_rev_at_epoch": 87685,
        "meta_bstar": 0.00015344721,
        "meta_mean_motion_dot": 1e-06,
        "meta_mean_motion_ddot": 0,
        "tle_line1": "1 18362U 87080B   25359.81589700  .00000100  00000+0  15345-3 0  9996",
        "tle_line2": "2 18362  90.3748  80.2212 0104820 209.3307 275.5585 13.44450875876859"
      },
      "geometry": {
        "type": "Point",
        "coordinates": [
          -99.98665960806709,
          -30.988442557467707
        ]
      }
    },
    {
      "type": "Feature",
      "properties": {
        "norad_id": 19070,
        "name": "OSCAR 23",
        "group": "nnss",
        "lat": -77.12577308963485,
        "lon": -164.5905594939222,
        "alt_km": 1220.3577428718154,
        "timestamp": "2025-12-26T06:43:29.780209+00:00",
        "meta_object_name": "OSCAR 23",
        "meta_object_id": "1988-033A",
        "meta_epoch": "2025-12-25T15:34:55.886016",
        "meta_mean_motion": 13.27789128,
        "meta_eccentricity": 0.0190526,
        "meta_inclination": 90.3203,
        "meta_ra_of_asc_node": 16.7922,
        "meta_arg_of_pericenter": 144.1187,
        "meta_mean_anomaly": 336.7875,
        "meta_ephemeris_type": 0,
        "meta_classification_type": "U",
        "meta_norad_cat_id": 19070,
        "meta_element_set_no": 999,
        "meta_rev_at_epoch": 82424,
        "meta_bstar": 9.5671e-05,
        "meta_mean_motion_dot": 5.7e-07,
        "meta_mean_motion_ddot": 0,
        "tle_line1": "1 19070U 88033A   25359.64925794  .00000057  00000+0  95671-4 0  9992",
        "tle_line2": "2 19070  90.3203  16.7922 0190526 144.1187 336.7875 13.27789128824249"
      },
      "geometry": {
        "type": "Point",
        "coordinates": [
          -164.5905594939222,
          -77.12577308963485
        ]
      }
    }
  ]
}